[{"OBJECT_NAME":"SMDC ONE 2.4","OBJECT_ID":"2013-072H","EPOCH":"2026-03-09T13:26:07.283328","MEAN_MOTION":15.15767863,"ECCENTRICITY":0.0137633,"INCLINATION":120.4883,"RA_OF_ASC_NODE":328.0945,"ARG_OF_PERICENTER":267.6479,"MEAN_ANOMALY":90.8828,"EPHEMERIS_TYPE":0,"CLASSIFICATION_TYPE":"U","NORAD_CAT_ID":39469,"ELEMENT_SET_NO":999,"REV_AT_EPOCH":10271,"BSTAR":0.00065974,"MEAN_MOTION_DOT":0.00015821,"MEAN_MOTION_DDOT":0},{"OBJECT_NAME":"STARLINK-34100","OBJECT_ID":"2025-127R","EPOCH":"2026-03-09T14:57:17.609472","MEAN_MOTION":15.27611959,"ECCENTRICITY":0.00025421,"INCLINATION":43.0043,"RA_OF_ASC_NODE":180.4476,"ARG_OF_PERICENTER":293.059,"MEAN_ANOMALY":66.9994,"EPHEMERIS_TYPE":0,"CLASSIFICATION_TYPE":"U","NORAD_CAT_ID":64385,"ELEMENT_SET_NO":999,"REV_AT_EPOCH":4240,"BSTAR":0.00087619935,"MEAN_MOTION_DOT":0.00023952,"MEAN_MOTION_DDOT":0}]
